[{"OBJECT_NAME":"FLOCK 4G-18","OBJECT_ID":"2025-009BZ","EPOCH":"2026-03-09T04:35:14.656704","MEAN_MOTION":15.27241676,"ECCENTRICITY":0.00041001,"INCLINATION":97.4054,"RA_OF_ASC_NODE":150.5008,"ARG_OF_PERICENTER":335.7331,"MEAN_ANOMALY":24.3715,"EPHEMERIS_TYPE":0,"CLASSIFICATION_TYPE":"U","NORAD_CAT_ID":62680,"ELEMENT_SET_NO":999,"REV_AT_EPOCH":12126,"BSTAR":0.0004431856,"MEAN_MOTION_DOT":0.00011766,"MEAN_MOTION_DDOT":0},{"OBJECT_NAME":"STARLINK-36447","OBJECT_ID":"2026-005X","EPOCH":"2026-03-09T12:50:28.129920","MEAN_MOTION":15.27590263,"ECCENTRICITY":0.0002124,"INCLINATION":43.0012,"RA_OF_ASC_NODE":238.7868,"ARG_OF_PERICENTER":286.3221,"MEAN_ANOMALY":73.7398,"EPHEMERIS_TYPE":0,"CLASSIFICATION_TYPE":"U","NORAD_CAT_ID":67425,"ELEMENT_SET_NO":999,"REV_AT_EPOCH":867,"BSTAR":0.0010776967,"MEAN_MOTION_DOT":0.00029523,"MEAN_MOTION_DDOT":0}]
